ENTRYSAT                
1 44429U 98067QP  20036.40556225  .00008630  00000-0  13188-3 0  9994
2 44429  51.6401 280.3816 0003045 175.9659 184.1357 15.55277893 33797
VCC C                   
1 44430U 98067QQ  20036.77150957  .00011269  00000-0  16696-3 0  9997
2 44430  51.6404 278.3314 0003089 187.7181 172.3763 15.55775384 32686
VCC B                   
1 44431U 98067QR  20036.95313227  .00007638  00000-0  11958-3 0  9990
2 44431  51.6409 278.0424 0003234 188.0663 172.0276 15.54800929 33817
DUCHIFAT-3              
1 44854U 19089C   20036.47366944  .00000377  00000-0  36994-4 0  9998
2 44854  36.9664 164.1747 0007584  54.8193 305.3257 14.98962928  8332
